GLOBALSTAR M070         
1 32264U 07048B   25165.37973424 -.00000111  00000+0 -37580-4 0  9995
2 32264  51.9729 137.0549 0000336  59.6142  73.8172 12.62319361813318
GLOBALSTAR M068         
1 32266U 07048D   25165.54205741 -.00000063  00000+0  22868-3 0  9993
2 32266  51.9898 310.3205 0001782 120.6883 314.1313 12.62824935817229
GLOBALSTAR M079         
1 37188U 10054A   25165.34513691 -.00000116  00000+0 -68924-4 0  9990
2 37188  52.0013 148.4362 0000317 327.3313 180.2064 12.62265021676097
GLOBALSTAR M074         
1 37189U 10054B   25165.37553931 -.00000126  00000+0 -12347-3 0  9993
2 37189  51.9990 147.6678 0000368  15.3519 149.2445 12.62256932676706
GLOBALSTAR M076         
1 37190U 10054C   25165.39984044 -.00000108  00000+0 -24556-4 0  9996
2 37190  52.0011 147.7637 0000432 354.5606 161.1198 12.62263334676428
GLOBALSTAR M077         
1 37191U 10054D   25165.30899981 -.00000106  00000+0 -10557-4 0  9997
2 37191  52.0065 104.8957 0000513  39.7730 122.8261 12.62268298676785
